OBJECT_NAME,OBJECT_ID,EPOCH,MEAN_MOTION,ECCENTRICITY,INCLINATION,RA_OF_ASC_NODE,ARG_OF_PERICENTER,MEAN_ANOMALY,EPHEMERIS_TYPE,CLASSIFICATION_TYPE,NORAD_CAT_ID,ELEMENT_SET_NO,REV_AT_EPOCH,BSTAR,MEAN_MOTION_DOT,MEAN_MOTION_DDOT
ICESAT-2,2018-070A,2026-06-04T02:59:24.841248,15.28278946,.0004638,92.0072,287.4515,122.5303,237.6395,0,U,43613,999,43046,.41147E-3,.11337E-3,0
HYSIS,2018-096A,2026-06-04T03:37:53.773248,14.78667889,.0001557,97.9842,222.0002,118.2923,241.8445,0,U,43719,999,40549,.19954E-3,.1411E-4,0
KAZSTSAT,2018-099AB,2026-06-04T00:30:40.683744,14.99829616,.0007406,97.4265,187.5492,104.1116,256.0932,0,U,43783,999,40933,.11008E-3,.1308E-4,0
SAUDISAT 5A,2018-102A,2026-06-04T04:45:21.735936,15.27907532,.0009963,97.3070,217.0303,170.3882,189.7551,0,U,43831,999,41369,.23124E-3,.6234E-4,0
SAUDISAT 5B,2018-102C,2026-06-04T05:15:41.008896,15.28172219,.0010613,97.3177,220.0969,173.2197,186.9188,0,U,43833,999,41381,.22498E-3,.6113E-4,0
GAOFEN-10R,2019-066A,2026-06-04T04:47:24.810144,14.83030472,.000571,98.0497,108.6848,164.6418,195.4969,0,U,44622,999,36045,.17069E-3,.1334E-4,0
CARTOSAT-3,2019-081A,2026-06-04T04:22:09.018912,15.19355553,.0012223,97.4307,217.2575,190.1065,169.9926,0,U,44804,999,36149,.25748E-3,.5385E-4,0
GAOFEN-12 01,2019-082A,2026-06-04T04:05:20.927040,14.80447296,.0002528,97.8101,161.8935,85.8133,274.3368,0,U,44819,999,35216,.65069E-4,.447E-5,0
CSG-1,2019-092A,2026-06-04T03:45:50.162112,14.82153055,.0001437,97.8886,338.9482,90.5281,269.6097,0,U,44873,999,34954,.67711E-4,.487E-5,0
NEMO-HD,2020-061F,2026-06-04T04:07:21.176832,15.44320112,.0002654,97.1922,217.2581,95.4030,264.7522,0,U,46277,999,31997,.25516E-3,.11674E-3,0
SENTINEL-6A,2020-086A,2026-06-04T01:07:23.676384,12.80929616,.0007953,66.0385,162.3453,270.2019,89.8084,0,U,46984,999,25864,.13927E-4,-.58E-6,0
CAS500-1,2021-022A,2026-06-04T05:27:24.939936,15.20177049,.0004537,97.3912,50.7417,354.2544,5.8638,0,U,47932,999,28879,.41431E-3,.8908E-4,0
GAOFEN-12 02,2021-026A,2026-06-04T04:19:16.345056,14.80285353,.0003339,97.9920,153.4141,280.9489,79.1347,0,U,48079,999,27983,.61907E-4,.419E-5,0
PLEIADES NEO 3,2021-034A,2026-06-02T09:30:14.112288,14.81680615,.00014715,97.8935,228.3753,92.5758,267.5623,0,U,48268,999,27546,.18487892E-3,.1403E-4,0
PLEIADES NEO 4,2021-073E,2026-06-04T04:27:16.069824,14.81675376,.0001441,97.8931,230.1346,88.0977,272.0401,0,U,49070,999,25944,.18012E-3,.1366E-4,0
LANDSAT 9,2021-088A,2026-06-04T01:56:00.027168,14.57125204,.0001494,98.1855,225.4188,95.3685,264.7684,0,U,49260,999,24909,.10642E-3,.435E-5,0
CSG-2,2022-008A,2026-06-04T04:34:25.567680,14.82162685,.0001445,97.8878,338.9765,83.7757,276.3620,0,U,51444,999,23466,.25202E-4,.148E-5,0
GAOFEN-12 03,2022-069A,2026-06-04T04:58:55.647264,14.80014582,.0001483,97.8294,43.4044,112.2911,247.8459,0,U,52912,999,21269,.17703E-3,.1289E-4,0
SWOT,2022-173A,2026-06-04T03:02:07.579104,14.00173180,.0000199,77.6112,52.9411,98.9862,261.1313,0,U,54754,999,17732,.59929E-4,.86E-6,0
GAOFEN-12 04,2023-123A,2026-06-04T05:25:23.787264,14.80202240,.0001765,97.9130,73.4297,89.1035,271.0379,0,U,57654,999,15071,.15548E-3,.113E-4,0
PARS 1,2024-039Q,2026-06-04T04:07:24.364128,15.45444995,.0010486,97.4823,135.6851,151.3189,208.8638,0,U,59065,999,12663,.2482E-3,.11814E-3,0
RESURS-P 4,2024-061A,2026-06-04T04:48:58.199904,15.32053339,.0001187,97.2752,103.3271,129.1846,230.9501,0,U,59371,999,12177,.11118E-3,.3364E-4,0
LEGION 1,2024-081A,2026-06-04T03:55:16.749120,15.16572135,.0010605,97.5017,233.1603,59.4528,300.7750,0,U,59625,999,11556,.25477E-3,.4912E-4,0
LEGION 2,2024-081B,2026-06-04T03:03:11.414016,15.16551955,.001206,97.5016,233.2223,29.2216,330.9689,0,U,59626,999,11556,.21438E-3,.4122E-4,0
ALOS-4 (DAICHI-4),2024-123A,2026-06-04T04:09:06.934752,14.79465724,.0001692,97.9238,252.5294,99.4301,260.7101,0,U,60182,999,10395,.23671E-3,.1717E-4,0
LEGION 3,2024-146A,2026-06-04T03:35:29.527584,15.15933743,.0006721,45.0008,100.4718,86.2017,273.9630,0,U,60452,999,10004,.2445E-3,.4507E-4,0
LEGION 4,2024-146B,2026-06-04T03:39:52.803072,15.15939319,.0013917,44.9994,192.3672,240.7439,119.2049,0,U,60453,999,9889,.20884E-3,.3816E-4,0
SENTINEL-2C,2024-157A,2026-06-03T04:28:34.851072,14.30813757,.00012579,98.5693,229.1659,79.7674,280.3651,0,U,60989,999,9098,.65612636E-4,.128E-5,0
IONOSFERA-M 1,2024-199A,2026-06-04T04:24:13.007232,14.22751884,.0001519,98.7188,28.4921,127.5819,232.5497,0,U,61735,999,12585,.49472E-4,.67E-6,0
IONOSFERA-M 2,2024-199B,2026-06-04T03:32:22.723008,14.22755058,.0001538,98.7187,28.3671,50.7846,309.3468,0,U,61736,999,12897,.54189E-4,.77E-6,0
PRSC-EO1,2025-012A,2026-06-03T06:42:57.565152,15.17750222,.0004074,97.4226,227.0114,321.0187,39.0752,0,U,62725,999,7608,.45362E-3,.9097E-4,0
