ICESAT-2                
1 43613U 18070A   26155.12459307  .00011337  00000+0  41147-3 0  9997
2 43613  92.0072 287.4515 0004638 122.5303 237.6395 15.28278946430462
HYSIS                   
1 43719U 18096A   26155.15131682  .00001411  00000+0  19954-3 0  9991
2 43719  97.9842 222.0002 0001557 118.2923 241.8445 14.78667889405491
KAZSTSAT                
1 43783U 18099AB  26155.02130421  .00001308  00000+0  11008-3 0  9998
2 43783  97.4265 187.5492 0007406 104.1116 256.0932 14.99829616409338
SAUDISAT 5A             
1 43831U 18102A   26155.19816824  .00006234  00000+0  23124-3 0  9998
2 43831  97.3070 217.0303 0009963 170.3882 189.7551 15.27907532413699
SAUDISAT 5B             
1 43833U 18102C   26155.21922464  .00006113  00000+0  22498-3 0  9990
2 43833  97.3177 220.0969 0010613 173.2197 186.9188 15.28172219413812
GAOFEN-10R              
1 44622U 19066A   26155.19959271  .00001334  00000+0  17069-3 0  9998
2 44622  98.0497 108.6848 0005710 164.6418 195.4969 14.83030472360458
CARTOSAT-3              
1 44804U 19081A   26155.18204883  .00005385  00000+0  25748-3 0  9991
2 44804  97.4307 217.2575 0012223 190.1065 169.9926 15.19355553361490
GAOFEN-12 01            
1 44819U 19082A   26155.17038110  .00000447  00000+0  65069-4 0  9990
2 44819  97.8101 161.8935 0002528  85.8133 274.3368 14.80447296352167
CSG-1                   
1 44873U 19092A   26155.15683058  .00000487  00000+0  67711-4 0  9996
2 44873  97.8886 338.9482 0001437  90.5281 269.6097 14.82153055349549
NEMO-HD                 
1 46277U 20061F   26155.17177288  .00011674  00000+0  25516-3 0  9995
2 46277  97.1922 217.2581 0002654  95.4030 264.7522 15.44320112319972
SENTINEL-6A             
1 46984U 20086A   26155.04680181 -.00000058  00000+0  13927-4 0  9993
2 46984  66.0385 162.3453 0007953 270.2019  89.8084 12.80929616258646
CAS500-1                
1 47932U 21022A   26155.22737199  .00008908  00000+0  41431-3 0  9991
2 47932  97.3912  50.7417 0004537 354.2544   5.8638 15.20177049288798
GAOFEN-12 02            
1 48079U 21026A   26155.18005029  .00000419  00000+0  61907-4 0  9993
2 48079  97.9920 153.4141 0003339 280.9489  79.1347 14.80285353279832
PLEIADES NEO 3          
1 48268U 21034A   26153.39599667  .00001403  00000+0  18488-3 0  9998
2 48268  97.8935 228.3753 0001471  92.5758 267.5623 14.81680615275465
PLEIADES NEO 4          
1 49070U 21073E   26155.18560266  .00001366  00000+0  18012-3 0  9996
2 49070  97.8931 230.1346 0001441  88.0977 272.0401 14.81675376259445
LANDSAT 9               
1 49260U 21088A   26155.08055587  .00000435  00000+0  10642-3 0  9994
2 49260  98.1855 225.4188 0001494  95.3685 264.7684 14.57125204249095
CSG-2                   
1 51444U 22008A   26155.19057370  .00000148  00000+0  25202-4 0  9998
2 51444  97.8878 338.9765 0001445  83.7757 276.3620 14.82162685234669
GAOFEN-12 03            
1 52912U 22069A   26155.20758851  .00001289  00000+0  17703-3 0  9993
2 52912  97.8294  43.4044 0001483 112.2911 247.8459 14.80014582212694
SWOT                    
1 54754U 22173A   26155.12647661  .00000086  00000+0  59929-4 0  9993
2 54754  77.6112  52.9411 0000199  98.9862 261.1313 14.00173180177326
GAOFEN-12 04            
1 57654U 23123A   26155.22596976  .00001130  00000+0  15548-3 0  9993
2 57654  97.9130  73.4297 0001765  89.1035 271.0379 14.80202240150711
PARS 1                  
1 59065U 24039Q   26155.17180977  .00011814  00000+0  24820-3 0  9995
2 59065  97.4823 135.6851 0010486 151.3189 208.8638 15.45444995126639
RESURS-P 4              
1 59371U 24061A   26155.20067361  .00003364  00000+0  11118-3 0  9992
2 59371  97.2752 103.3271 0001187 129.1846 230.9501 15.32053339121776
LEGION 1                
1 59625U 24081A   26155.16338830  .00004912  00000+0  25477-3 0  9996
2 59625  97.5017 233.1603 0010605  59.4528 300.7750 15.16572135115567
LEGION 2                
1 59626U 24081B   26155.12721544  .00004122  00000+0  21438-3 0  9997
2 59626  97.5016 233.2223 0012060  29.2216 330.9689 15.16551955115565
ALOS-4 (DAICHI-4)       
1 60182U 24123A   26155.17299693  .00001717  00000+0  23671-3 0  9991
2 60182  97.9238 252.5294 0001692  99.4301 260.7101 14.79465724103954
LEGION 3                
1 60452U 24146A   26155.14964731  .00004507  00000+0  24450-3 0  9991
2 60452  45.0008 100.4718 0006721  86.2017 273.9630 15.15933743100043
LEGION 4                
1 60453U 24146B   26155.15269448  .00003816  00000+0  20884-3 0  9995
2 60453  44.9994 192.3672 0013917 240.7439 119.2049 15.15939319 98895
SENTINEL-2C             
1 60989U 24157A   26154.18651448  .00000128  00000+0  65613-4 0  9991
2 60989  98.5693 229.1659 0001257  79.7674 280.3651 14.30813757 90983
IONOSFERA-M 1           
1 61735U 24199A   26155.18348388  .00000067  00000+0  49472-4 0  9991
2 61735  98.7188  28.4921 0001519 127.5819 232.5497 14.22751884125855
IONOSFERA-M 2           
1 61736U 24199B   26155.14748522  .00000077  00000+0  54189-4 0  9994
2 61736  98.7187  28.3671 0001538  50.7846 309.3468 14.22755058128978
PRSC-EO1                
1 62725U 25012A   26154.27983293  .00009097  00000+0  45362-3 0  9990
2 62725  97.4226 227.0114 0004074 321.0187  39.0752 15.17750222 76087
